GLOBALSTAR M045 [-]     
1 25676U 99019A   23310.96080523 -.00000058  00000+0  31261-3 0  9995
2 25676  51.9953 181.7812 0001649  94.4007 278.9315 12.27018624121183
GLOBALSTAR M019 [-]     
1 25677U 99019B   23311.15649696 -.00000222  00000+0 -13768-2 0  9995
2 25677  51.9883 270.2260 0000468 183.7034 188.7177 12.13847775113926
GLOBALSTAR M044 [-]     
1 25678U 99019C   23310.81286498 -.00000043  00000+0  56175-3 0  9995
2 25678  51.9941 148.9352 0006296 354.4833  19.3590 11.90226738101260
GLOBALSTAR M042 [-]     
1 25679U 99019D   23311.14250005 -.00000051  00000+0  38281-3 0  9995
2 25679  52.0017 270.9702 0002835 158.4828 214.1849 12.22050626113434
GLOBALSTAR M025 [-]     
1 25770U 99031A   23311.09815595 -.00000050  00000+0  53709-3 0  9997
2 25770  51.9810  81.6069 0000936 193.7024 337.9189 11.22546908 73324
GLOBALSTAR M049 [-]     
1 25771U 99031B   23310.61992858 -.00000050  00000+0  53544-3 0  9990
2 25771  51.9863  87.8982 0003755 107.8347 252.2859 11.12103337 51942
GLOBALSTAR M047 [-]     
1 25772U 99031C   23310.84104046 -.00000064  00000+0  14038-3 0  9990
2 25772  51.9801 140.5791 0015833 336.6144  23.3940 11.31917083404488
GLOBALSTAR M052 [-]     
1 25773U 99031D   23310.96666600 -.00000018  00000+0  15910-2 0  9991
2 25773  51.9854 204.0615 0001693 299.8088  73.3864 11.15046823412895
